{"type":"FeatureCollection","features":[{"type":"Feature","id":36,"geometry":{"type":"Polygon","coordinates":[[[-76.511696273921,42.4597924586399],[-76.5116154816924,42.4587395345419],[-76.5108423748088,42.4514824653592],[-76.5107713561287,42.450610484186],[-76.5111563182629,42.4499495717214],[-76.5118922678544,42.4485474568595],[-76.5125113254693,42.4468624513895],[-76.513292479958,42.4455644591383],[-76.5135293989984,42.4445004080664],[-76.5137344281793,42.4435774866892],[-76.5139054773817,42.4428064983985],[-76.5147563075404,42.4412435603753],[-76.5148563066371,42.4410604509609],[-76.5155653308686,42.4397605117625],[-76.5167133705446,42.4376762231341],[-76.5180883314126,42.4353971036898],[-76.5188074227511,42.4341020959816],[-76.5198487367607,42.4324096273783],[-76.5211898668713,42.4301149584866],[-76.5212653958991,42.4299593635801],[-76.5257303420072,42.4298149243486],[-76.5260453627116,42.4352264552058],[-76.5260723251301,42.4362500600461],[-76.5260733366557,42.4362884364913],[-76.5261644699726,42.4394455706205],[-76.5262254301371,42.4411604927623],[-76.5262296043766,42.4412512741269],[-76.5262624431499,42.4419655616123],[-76.5263164789039,42.4431505246938],[-76.5263553094275,42.4437405258458],[-76.526598750932,42.4488016694005],[-76.5267554813947,42.4509105342301],[-76.5270701462245,42.4566746573019],[-76.5267837792942,42.4567820507403],[-76.5266190223813,42.4568740673058],[-76.5263317477061,42.4569589924019],[-76.5260619013206,42.4569806386355],[-76.5259222183471,42.4570052655416],[-76.5257386833913,42.4563548239841],[-76.525515144957,42.4563754460528],[-76.5251900934021,42.4560062181276],[-76.5251342582636,42.4560248843368],[-76.5248722690507,42.4555646032339],[-76.5242678751327,42.4557383700892],[-76.5242874898013,42.455297782208],[-76.5221243712717,42.4553284935665],[-76.5220693760844,42.455334520446],[-76.5214013914132,42.4553715496838],[-76.5184514272674,42.4553975280384],[-76.519969948985,42.4577910564998],[-76.5205144372908,42.4585223139307],[-76.5201615174751,42.458689338164],[-76.5202772687625,42.4588262073601],[-76.5204511601649,42.4590318221246],[-76.5206627739884,42.4590292875606],[-76.5212789810388,42.4597165219765],[-76.5228270354616,42.4617470072947],[-76.5225230089187,42.4618819916652],[-76.5225561423612,42.4619835853727],[-76.5225788877854,42.4619877810787],[-76.5227993017194,42.4624050588092],[-76.5232057132491,42.4629942235354],[-76.5232190447353,42.4631021077721],[-76.5233707230907,42.4633880868885],[-76.5237561154526,42.4640131691319],[-76.5244687459017,42.4650304667745],[-76.5245717225346,42.4651505849379],[-76.524616152113,42.4652694423344],[-76.5247221971307,42.4654836007777],[-76.5248320873966,42.4656472269248],[-76.5248484668228,42.4657187524842],[-76.5250586473891,42.4658828193597],[-76.5251391256677,42.4660257244865],[-76.5251695498508,42.4661920999201],[-76.5252139857366,42.4662627726749],[-76.5125588168387,42.4665665156358],[-76.5118644322352,42.4638644498415],[-76.5117693221081,42.4607325262639],[-76.511696273921,42.4597924586399]]]},"properties":{"ward":1,"district":1,"distName":"1-1","pollSite":"Lehman Alternative Community Schooll","legDist":"001","asmDist":125,"senDist":"53","repDist":"22"}},{"type":"Feature","id":38,"geometry":{"type":"Polygon","coordinates":[[[-76.4885212483799,42.438692686334],[-76.4885947745875,42.4400078105116],[-76.4886293327765,42.4406751322627],[-76.4886397855732,42.4416058397672],[-76.4892799421126,42.4415888052266],[-76.4898252401513,42.4415892513756],[-76.4898485442465,42.4418614560972],[-76.4898598755954,42.44221267237],[-76.4898950347573,42.4424848869786],[-76.4898473306225,42.442678011459],[-76.489787848676,42.4428184457269],[-76.4897046449177,42.4429676407161],[-76.4896450973942,42.4431519755202],[-76.4896097154501,42.4433425735935],[-76.4895975675324,42.4433434771361],[-76.489547454116,42.4436130517864],[-76.4895008710787,42.443858415443],[-76.4894814908247,42.4439666194927],[-76.4894499599583,42.4441471907328],[-76.4893886292789,42.4445892823449],[-76.4893783821964,42.4447830758257],[-76.4894074058649,42.4448861753438],[-76.4895382068585,42.4450646485412],[-76.4896343607299,42.4451713788963],[-76.489746119236,42.4452972717991],[-76.4898205626237,42.4453874488421],[-76.489939148326,42.4455884540157],[-76.4899853603592,42.4457158773383],[-76.4900253758135,42.4458342474373],[-76.4900690150717,42.445962830962],[-76.4901130163509,42.4460924794681],[-76.4901523607638,42.4462098777407],[-76.4901778378835,42.4462856080742],[-76.4902593608939,42.4465813780816],[-76.4902755853662,42.4467391482946],[-76.4902850625924,42.4470631318037],[-76.490294025084,42.447406924003],[-76.4903163697784,42.4481542413763],[-76.4903273615642,42.4485218783507],[-76.4899788619464,42.4485308778985],[-76.4895193602038,42.4485638779969],[-76.4894603615509,42.4485918788503],[-76.4892663595855,42.4487248779267],[-76.4891710752833,42.4486574965004],[-76.4891033477008,42.4486096035039],[-76.4890252948824,42.4485544078289],[-76.4889658605466,42.4485123783479],[-76.4888838057336,42.4484813071244],[-76.488655190782,42.4483156791802],[-76.4885623606772,42.4482338782186],[-76.4885294895243,42.4482255752894],[-76.4883538778694,42.4481604894604],[-76.488201765244,42.4481601288665],[-76.4879355656792,42.4481594971645],[-76.4878257762801,42.4481592359991],[-76.4876496714502,42.4481588177367],[-76.4876453406722,42.4479800590453],[-76.4876387236818,42.4477639562815],[-76.4876093595518,42.4467508784652],[-76.487462360137,42.4465548784006],[-76.4873993334384,42.446499245407],[-76.4874475945287,42.4465008813797],[-76.4871980012203,42.446423942223],[-76.4869867749576,42.4464418703297],[-76.4867737278099,42.4464047705579],[-76.4866245140479,42.4463452649122],[-76.4865003857403,42.44625046237],[-76.4863776498213,42.4460806053296],[-76.486262363631,42.445877089418],[-76.4860812471001,42.4455958378751],[-76.4859760211426,42.4455070797048],[-76.4857943090287,42.4453879002672],[-76.4855203579013,42.4452658774807],[-76.4852995987168,42.4452167257193],[-76.4852002800807,42.4452019950321],[-76.4851545603243,42.4451982762323],[-76.4851546088334,42.4451929665018],[-76.4850573599157,42.4451874930376],[-76.4850543595426,42.4450114934315],[-76.4850526051329,42.4449085870208],[-76.4850555614885,42.4447776116061],[-76.4850734945565,42.4445306586134],[-76.4850985090439,42.4442920293117],[-76.4851278588008,42.4441929930454],[-76.4851735363364,42.4440728949806],[-76.4852593910231,42.4438880279245],[-76.485320079407,42.4437202658823],[-76.4853413371399,42.4435978361388],[-76.48533958812,42.443487022918],[-76.4853183591332,42.4433914928191],[-76.4853025721405,42.4433264530115],[-76.4852618595935,42.4431599927451],[-76.4852319546776,42.4430303421476],[-76.4852153600994,42.4429564925362],[-76.4852193576024,42.4428619924571],[-76.4852263581734,42.4428174924582],[-76.48524535844,42.4427394927563],[-76.4852563726837,42.4427087103516],[-76.4852180110278,42.4427078114402],[-76.4851343590102,42.4426718775123],[-76.4850723590859,42.4425968779834],[-76.4847611377558,42.4426005564997],[-76.4845128955135,42.442608231068],[-76.4842727650583,42.4426114541611],[-76.4840335535796,42.442618965651],[-76.4837528992236,42.4426226660422],[-76.4835727762294,42.4426278977666],[-76.4834326480282,42.4426266753515],[-76.4833009253631,42.4426059791455],[-76.483170613053,42.4425715638985],[-76.4830949272954,42.442550060243],[-76.4830841996143,42.4422140280399],[-76.4830675493405,42.4416924933751],[-76.4830653583495,42.4414288774724],[-76.4834448282851,42.4415189274981],[-76.4836582203859,42.4415697308577],[-76.4839172154621,42.4416302473603],[-76.4839915636283,42.4416423722651],[-76.4842253582658,42.4416488775507],[-76.4841570368969,42.4393482766148],[-76.4851453427112,42.4393264934141],[-76.4850473580733,42.4376438763877],[-76.4856603585417,42.4374474918171],[-76.4858543587104,42.4373824915841],[-76.4859533449699,42.4373426377708],[-76.4860283614827,42.4372729396131],[-76.4864901844719,42.4375212053834],[-76.4873205440014,42.4380062832643],[-76.4885148353071,42.4386891401795],[-76.4885212483799,42.438692686334]]]},"properties":{"ward":4,"district":1,"distName":"4-1","pollSite":"Robert Purcell Community Center","legDist":"004","asmDist":125,"senDist":"53","repDist":"22"}},{"type":"Feature","id":39,"geometry":{"type":"Polygon","coordinates":[[[-76.4820110470231,42.4513002180185],[-76.4814834898129,42.4511307160255],[-76.4808603904841,42.4510092684905],[-76.4804302007692,42.4508989814078],[-76.4796584850581,42.4509092757785],[-76.4786345394832,42.4508863651508],[-76.4779073263112,42.4509076783648],[-76.4774326205825,42.4507973387399],[-76.4771805389407,42.4506762133565],[-76.4769878574988,42.4505331619488],[-76.4768696383091,42.4502363162604],[-76.476721609425,42.4500163741765],[-76.4764696634288,42.4498183156094],[-76.4760099407007,42.4496310521045],[-76.4754759452649,42.449487678157],[-76.4750040692293,42.4494228435312],[-76.4749327537755,42.4475144683407],[-76.4747388694894,42.4443154885785],[-76.4750282590633,42.4441853988819],[-76.4754425944117,42.4439513469215],[-76.4754309315843,42.443653775982],[-76.4755894770455,42.4434916181807],[-76.4763321160875,42.4434923142317],[-76.476600121266,42.4433933768002],[-76.4765885437786,42.4430417024458],[-76.4767836380954,42.4428615443283],[-76.4774293462233,42.4425826153613],[-76.4778925562113,42.4422313799489],[-76.4786475785295,42.442096816515],[-76.4795850468853,42.44206160018],[-76.4803760251711,42.4422697046141],[-76.4804851507152,42.4425403127299],[-76.4806677045505,42.4425765450451],[-76.4809358166286,42.4424054615905],[-76.4814592191306,42.442460029598],[-76.4821893805732,42.4426410161875],[-76.4831141916667,42.4429123386444],[-76.483467046317,42.4430388850761],[-76.483892934,42.4431745097928],[-76.4848304005591,42.4431482678682],[-76.4852572692024,42.4431400895549],[-76.4852618595935,42.4431599927451],[-76.4853025721405,42.4433264530115],[-76.4853183591332,42.4433914928191],[-76.48533958812,42.443487022918],[-76.4853413371399,42.4435978361388],[-76.485320079407,42.4437202658823],[-76.4852593910231,42.4438880279245],[-76.4851735363364,42.4440728949806],[-76.4851278588008,42.4441929930454],[-76.4850985090439,42.4442920293117],[-76.4850734945565,42.4445306586134],[-76.4850555614885,42.4447776116061],[-76.4850526051329,42.4449085870208],[-76.4850543595426,42.4450114934315],[-76.4850573599157,42.4451874930376],[-76.4851546088334,42.4451929665018],[-76.4851545612226,42.4451948908649],[-76.4852002791824,42.4451986096648],[-76.4852995987168,42.4452133410157],[-76.4855203587996,42.4452624927798],[-76.485794309927,42.44538451491],[-76.4859760220409,42.4455036956798],[-76.4860812471001,42.4455924525292],[-76.4862623645294,42.4458737047501],[-76.486377648923,42.4460772213356],[-76.4865003857403,42.4462470770594],[-76.4866245140479,42.4463418802697],[-76.4867737269116,42.4464013859186],[-76.4869867758559,42.4464384850294],[-76.4871980012203,42.4464205582476],[-76.4874475945287,42.4464974967456],[-76.4873993343367,42.4464958601098],[-76.4874623610354,42.4465514931065],[-76.4876093604501,42.4467474938445],[-76.4876387227835,42.4477605710527],[-76.4876453406722,42.4479766738281],[-76.4876496714502,42.4481554325293],[-76.4876624517817,42.4486023426273],[-76.4876737418082,42.4489443353637],[-76.4876781157053,42.449188863503],[-76.4876897776343,42.4495159775391],[-76.4877491140538,42.4495863395018],[-76.4876856543672,42.4496341959582],[-76.4876368596776,42.4496784935887],[-76.4875163596654,42.4497654933015],[-76.4873383602885,42.4499164938875],[-76.4872533652895,42.4500315073991],[-76.487173360432,42.4501804936513],[-76.4871133448862,42.4502964724268],[-76.4870443309162,42.4504479874162],[-76.4869757687988,42.450598513096],[-76.4869430135286,42.4506649571814],[-76.4868958537728,42.4507601023536],[-76.4868445132577,42.4508643347499],[-76.4867761164302,42.4509912780597],[-76.4866957782977,42.4511055505476],[-76.4865981098668,42.4511920432062],[-76.4864842771506,42.4512404870233],[-76.4861386925659,42.4512919300778],[-76.4859264718682,42.4512853336611],[-76.4857528571682,42.4512793132371],[-76.4853024337999,42.4512670954136],[-76.485090970382,42.4512810630907],[-76.4846495193868,42.4513070106292],[-76.4844579689238,42.4513229661032],[-76.4841397290563,42.4513451587344],[-76.4838365440547,42.4513671916175],[-76.4835972840669,42.4513837913393],[-76.483400155066,42.4513998157272],[-76.4831494523382,42.4514153131676],[-76.4829823585089,42.4514184940497],[-76.482738043701,42.451396903287],[-76.4825187155328,42.4513634672183],[-76.4822123585799,42.4513114933013],[-76.4820389567806,42.4512792774447],[-76.4820110470231,42.4513002180185]]]},"properties":{"ward":3,"district":4,"distName":"4-3","pollSite":"Robert Purcell Community Center","legDist":"004","asmDist":125,"senDist":"53","repDist":"22"}},{"type":"Feature","id":40,"geometry":{"type":"Polygon","coordinates":[[[-76.5145082445184,42.4394380260938],[-76.5138801330742,42.4393059441989],[-76.513180736493,42.4393230785501],[-76.5127540855053,42.43924379518],[-76.5122446981492,42.4389537343935],[-76.5118420676323,42.4386022767013],[-76.5112734010149,42.4383297357141],[-76.5103969216108,42.4377321290057],[-76.5097099803121,42.437248780298],[-76.5086085775824,42.4364315108212],[-76.5082089304563,42.4361679018709],[-76.5082085895795,42.4361734627646],[-76.5078955884006,42.4359467287925],[-76.5072967647393,42.435552981104],[-76.5068419245216,42.4352885699776],[-76.5064326601795,42.4349792341198],[-76.506220487935,42.4347880347218],[-76.5059021892677,42.4345349508757],[-76.505636864136,42.4343886688709],[-76.5054018133501,42.4342986005132],[-76.5048481784886,42.4341914559816],[-76.5044007119777,42.4341124783169],[-76.503968368279,42.4340728441422],[-76.5035435614974,42.43407254925],[-76.5031339260454,42.4340722633986],[-76.5027849339332,42.4341057347389],[-76.5024359426666,42.4341392050172],[-76.5019654312326,42.434284974501],[-76.5014190288746,42.4344531645963],[-76.5005993551688,42.4347560192822],[-76.4995141409173,42.435075531349],[-76.4991043722718,42.4351707594291],[-76.4989828527579,42.4352774377788],[-76.4988294774654,42.4353235927436],[-76.4988404306855,42.4351044979934],[-76.4988632484499,42.4346635722413],[-76.4988623775759,42.4346495891273],[-76.4987864182634,42.4334305560006],[-76.4987543630091,42.4321364901866],[-76.499222308649,42.4314045274547],[-76.4996644199827,42.4309464136032],[-76.4997956857192,42.4308081925139],[-76.5001162986211,42.4308013052695],[-76.5010764543245,42.4298655725291],[-76.5014322584679,42.4295315602872],[-76.5026373267717,42.4284015008653],[-76.5037434487868,42.4274965481166],[-76.5052612577009,42.4264994223976],[-76.5074723646762,42.4252804884437],[-76.5077703655621,42.4251844886397],[-76.5078019521444,42.4252065964147],[-76.5100713661094,42.4242384882351],[-76.5132584469672,42.4226954256948],[-76.5161424160068,42.4208364744852],[-76.5167734562412,42.4201492716405],[-76.5176992242274,42.419389686635],[-76.5191395569054,42.4186003701371],[-76.5199242630667,42.4183468051627],[-76.5204076663194,42.4182503418064],[-76.5213715842434,42.4181656276175],[-76.5223115050509,42.418238507553],[-76.5233776264004,42.4185037051754],[-76.5244740756023,42.4190203379689],[-76.5252568098085,42.4196313013889],[-76.5259592786699,42.4205387895919],[-76.5261323220456,42.421326229557],[-76.5261270864749,42.4219928739863],[-76.5259795486259,42.4225937607122],[-76.5258749052014,42.4228605723464],[-76.5256151787877,42.4228597558499],[-76.5254957519178,42.4228387718734],[-76.5254286412641,42.4228171281833],[-76.5253663662615,42.4228225849176],[-76.5251318450994,42.4228526512283],[-76.5250748980219,42.4228533083286],[-76.5247207806377,42.4227949866894],[-76.5246393014703,42.4227913438171],[-76.5245152016741,42.4228158060846],[-76.524290128236,42.4228908093083],[-76.5242039725405,42.4229369005864],[-76.5240760535919,42.4230253480654],[-76.5239454479655,42.4231340002576],[-76.5238016130482,42.4232215658938],[-76.5235244517971,42.4232970555173],[-76.5234767391932,42.423324814657],[-76.5233906409754,42.423355240196],[-76.5230360932777,42.4234568156433],[-76.5228304771355,42.4235134754874],[-76.5226420221681,42.4235387588233],[-76.5224545064379,42.423550150778],[-76.5221971140978,42.4235266889288],[-76.5220033925724,42.4234931412525],[-76.5218619998114,42.4234455586934],[-76.5216232349068,42.4233133704664],[-76.5215738806675,42.4232919384457],[-76.5214425205521,42.4232348941571],[-76.5212941842197,42.4231873071468],[-76.521165266311,42.423166655636],[-76.5210430402796,42.4231681332969],[-76.5209786683613,42.4231871359663],[-76.5209140381132,42.4232325495491],[-76.5208947891323,42.4232690703868],[-76.5209076766478,42.4233453973164],[-76.5209200922051,42.4234308142774],[-76.5209070840282,42.4234760857913],[-76.5208229362781,42.4235942074137],[-76.5207716521694,42.4237209231322],[-76.5207262957519,42.4239376824787],[-76.5207283637741,42.4239403133731],[-76.5207246006705,42.4239437162379],[-76.5206742578573,42.4241228818691],[-76.5206033107216,42.4244661997827],[-76.5205575380254,42.4248676716339],[-76.520563831268,42.4250566760111],[-76.5205700078796,42.4253626467618],[-76.5205892245432,42.4255921336973],[-76.5206470800142,42.425843422612],[-76.5207563779904,42.4260446597252],[-76.5210719966279,42.4264233465221],[-76.5212074341878,42.4266463791328],[-76.5212647707251,42.4267225581004],[-76.5212753433528,42.4267987135334],[-76.5212175841811,42.4269166786023],[-76.5209232927476,42.4274385857853],[-76.5208819063936,42.4276189878777],[-76.5207044148214,42.4280124984445],[-76.5206793350625,42.4280901775385],[-76.5206763911721,42.4282567089812],[-76.5208022790323,42.4283089156271],[-76.5209856153052,42.4283246221053],[-76.5209760749226,42.428374353737],[-76.5193337183068,42.4300217983585],[-76.5212657337576,42.4299593529595],[-76.5211898668713,42.4301149584866],[-76.5198487367607,42.4324096273783],[-76.5188074227511,42.4341020959816],[-76.5180883314126,42.4353971036898],[-76.5167133705446,42.4376762231341],[-76.5156662284094,42.4395773355029],[-76.5151008619867,42.4395086212756],[-76.5145082445184,42.4394380260938]]]},"properties":{"ward":1,"district":2,"distName":"1-2","pollSite":"Titus Towers","legDist":"001","asmDist":125,"senDist":"53","repDist":"22"}},{"type":"Feature","id":41,"geometry":{"type":"Polygon","coordinates":[[[-76.4843249877221,42.4311068771368],[-76.4845133686198,42.4311034601102],[-76.488588397105,42.4310225185591],[-76.4916540840605,42.430889521428],[-76.4907613414876,42.429645038252],[-76.4909475530125,42.4292776501621],[-76.4911732763716,42.4291235896705],[-76.4926747590863,42.4280486405097],[-76.4948620266892,42.4273895442311],[-76.4973263379738,42.4292620326223],[-76.496347825392,42.4308822027271],[-76.499795693011,42.4308081925192],[-76.4996644199827,42.4309464136032],[-76.499222308649,42.4314045274547],[-76.4987543630091,42.4321364901866],[-76.4987864182634,42.4334305560006],[-76.4988632484499,42.4346635722413],[-76.4988404306855,42.4351044979934],[-76.4988220974182,42.4354712175581],[-76.4984824774027,42.436139446833],[-76.498204279314,42.4369165067822],[-76.4981794119529,42.4371059119746],[-76.4981433632051,42.4371754905209],[-76.49812836271,42.4372524905199],[-76.4981063622457,42.4372794910872],[-76.4980913625201,42.4373504906213],[-76.4980693634082,42.4373674907168],[-76.4980543633917,42.4374054908701],[-76.4980243631115,42.437422490406],[-76.4980173626475,42.4374714908966],[-76.4979803623449,42.4374994913043],[-76.4979433630329,42.4375544906154],[-76.497820574602,42.4376321979849],[-76.4976435423444,42.4377322766032],[-76.4974276209902,42.4378249109892],[-76.4973653622842,42.4378724907627],[-76.4970913621879,42.4379824908255],[-76.4967671594256,42.4381166918427],[-76.4965451008442,42.4382148225208],[-76.4964913620184,42.4382354912817],[-76.4964323625167,42.4382659908391],[-76.4963763622639,42.4382879911667],[-76.4962705420662,42.4383285501088],[-76.4962023623956,42.4383614913738],[-76.4961213617169,42.4383894910353],[-76.4960394069554,42.4384191608582],[-76.4959288618489,42.4384719913915],[-76.4958681871438,42.4384979951133],[-76.49579023546,42.4385314022303],[-76.495647361663,42.4385814916114],[-76.4955503624134,42.4386314917121],[-76.4954913359275,42.4386441685472],[-76.4954514190698,42.4386574487956],[-76.4953974699583,42.43868194583],[-76.4953174377724,42.4387026037692],[-76.4952618615392,42.4387154911028],[-76.4951583615344,42.4387394916948],[-76.4952013430217,42.4388083504032],[-76.4946604771995,42.4388443501812],[-76.4938826327187,42.4388025889238],[-76.4931234283576,42.4386785232019],[-76.4925308201745,42.4386231788153],[-76.492012340344,42.4385404530894],[-76.4914013137847,42.438416493005],[-76.4910496282006,42.4382653013791],[-76.4908276958046,42.4380456182632],[-76.490198357569,42.4377844465977],[-76.4897357356559,42.4375096890315],[-76.4891064290905,42.4372347935951],[-76.4889216510766,42.4369465411844],[-76.4889039544659,42.4363977658739],[-76.4887748242323,42.4360546833821],[-76.4886458399682,42.4356155682623],[-76.4885538986255,42.4351764826967],[-76.4884247119134,42.4348745566468],[-76.4881658001178,42.4346273993568],[-76.4878512062492,42.4344625099236],[-76.4873511807364,42.4344483727619],[-76.4868138844222,42.43458511209],[-76.4865361226644,42.4345574396128],[-76.4857213811131,42.4344607161486],[-76.4854620974324,42.4344604950735],[-76.4852770020823,42.4343917416648],[-76.4849622238888,42.4343503150179],[-76.4848143836561,42.4341444023585],[-76.4850743089265,42.4337330540297],[-76.4850562609377,42.4334312193193],[-76.4849088303922,42.4329646457034],[-76.4847057154819,42.4325803379087],[-76.4843356458509,42.4323742331559],[-76.484058349608,42.4320584553485],[-76.4839374003778,42.431688793933],[-76.4840536190918,42.4313887903583],[-76.4842853131297,42.4312603746554],[-76.4843249877221,42.4311068771368]]]},"properties":{"ward":3,"district":1,"distName":"3-1","pollSite":"South Hill Elementary School","legDist":"001","asmDist":125,"senDist":"53","repDist":"22"}},{"type":"Feature","id":46,"geometry":{"type":"Polygon","coordinates":[[[-76.5062236276775,42.4384142513099],[-76.5083041856322,42.4383630961942],[-76.5083175087965,42.4386916635346],[-76.5083324496483,42.4390112424801],[-76.5083446537446,42.4392632777833],[-76.508358500014,42.4395622275493],[-76.5083744964125,42.4398684584781],[-76.5083880862546,42.4401227246721],[-76.5084064389238,42.4404602612121],[-76.5084265992037,42.4408457746474],[-76.5084387423829,42.4410760821391],[-76.5084657818251,42.4415716599794],[-76.5084844399786,42.4419463292165],[-76.5084857946724,42.4423216389416],[-76.5085292413799,42.4427279966177],[-76.508556655792,42.4432365306555],[-76.508615104544,42.4443252894578],[-76.5086151266137,42.4443261528531],[-76.5083483355671,42.4443366597202],[-76.5078020463175,42.4443531590543],[-76.5074530267302,42.4443641669086],[-76.5070053754325,42.4443751080685],[-76.5068080905226,42.4443918345199],[-76.5064894262663,42.4443972409728],[-76.5060190201459,42.4444025433964],[-76.5042663259528,42.4444631610847],[-76.5027943800212,42.4445014710559],[-76.5013148386794,42.4445453763187],[-76.4994179801313,42.4446058157317],[-76.4992567389196,42.4445788220409],[-76.4992554169526,42.4445674899858],[-76.4991963147811,42.4427035178552],[-76.4991520337317,42.4422073013732],[-76.4991211355187,42.4415880803888],[-76.4991097080362,42.4413207316925],[-76.499163444079,42.4413189093547],[-76.4991353438422,42.4405075082898],[-76.4990414347648,42.439569471148],[-76.4990425866012,42.4395543713701],[-76.4990246928526,42.4395432386848],[-76.49900344957,42.439098600433],[-76.4989818170883,42.4386462166291],[-76.4990044134636,42.4386462332541],[-76.4992296463205,42.4386376181581],[-76.5000831613637,42.4386031207236],[-76.5016479097267,42.4385603453849],[-76.5029874353177,42.4385173910501],[-76.5038528009359,42.4384828738517],[-76.504884117388,42.4384484638082],[-76.5062236276775,42.4384142513099]]]},"properties":{"ward":2,"district":2,"distName":"2-2","pollSite":"Greater Ithaca Activities Center","legDist":"002","asmDist":125,"senDist":"53","repDist":"22"}},{"type":"Feature","id":47,"geometry":{"type":"Polygon","coordinates":[[[-76.4998844677734,42.4542769189539],[-76.4998838605994,42.4542681487743],[-76.499867964066,42.454271346739],[-76.4996631248246,42.4542374814948],[-76.4994886468755,42.4541980184777],[-76.4992004363078,42.4540910408558],[-76.498889438062,42.4540009036778],[-76.4987529033831,42.4539614674851],[-76.4985632809731,42.4538995152082],[-76.4982295274651,42.453803739788],[-76.4978426505168,42.4537135434058],[-76.4975847446059,42.4536459189421],[-76.4971675471077,42.4535332200178],[-76.4967503291037,42.4534373775146],[-76.4964848589832,42.4533528869023],[-76.4960827489748,42.4533076272843],[-76.4956806395476,42.4532623662558],[-76.4953392199458,42.4532283887593],[-76.4949598590554,42.4531943810008],[-76.4946774942503,42.4531802219485],[-76.494667384307,42.4528974703858],[-76.4946186931806,42.4521748370964],[-76.4950863005993,42.4521658395073],[-76.4951423001192,42.4518640643318],[-76.4950688145786,42.4514250003275],[-76.4950877256912,42.451150634768],[-76.4950142606315,42.4506978511424],[-76.4949781936861,42.4499981542882],[-76.4949235455371,42.4493395998597],[-76.4948695934405,42.4481871626652],[-76.4948152570025,42.4473091043332],[-76.4947611153172,42.4462938558132],[-76.4947249376356,42.4456764720123],[-76.494688721973,42.4450865263259],[-76.4946906661113,42.4450844913671],[-76.4959893998657,42.445083511261],[-76.4971632758875,42.445037407113],[-76.4981203742046,42.4450134257529],[-76.4981660221351,42.4450119390824],[-76.4986094649691,42.4449974947848],[-76.4992634641761,42.4449564718931],[-76.4992718310986,42.4447081259615],[-76.4996642944745,42.4451394192539],[-76.5003953529821,42.4460165177807],[-76.5004374315312,42.4460674858727],[-76.5011932540235,42.4469725529582],[-76.5019303672577,42.447856506886],[-76.5021944202512,42.4481724365052],[-76.5026254343926,42.4488584213367],[-76.5026543414844,42.4488894846596],[-76.5038323779568,42.4501844919677],[-76.5041792969209,42.4507335508965],[-76.5042574187189,42.4508565747792],[-76.5042774179918,42.4509754424015],[-76.5043994631552,42.4509774126183],[-76.5044473610392,42.4510095175869],[-76.5061604179065,42.4513924551209],[-76.5070094276386,42.4515825376784],[-76.5074424754666,42.4516054639339],[-76.5108423748088,42.4514824653592],[-76.5116154816924,42.4587395345419],[-76.511696273921,42.4597924586399],[-76.5117688200064,42.4607260717693],[-76.5108975119463,42.4604357507279],[-76.5103419141551,42.4602296135118],[-76.509675186027,42.4599959649873],[-76.5088788337709,42.4597073521483],[-76.5081380221266,42.4594599269916],[-76.5074527998875,42.4592125338496],[-76.5070453105269,42.4591162302834],[-76.5065637132498,42.4590198756584],[-76.5059898009988,42.4586627965193],[-76.5052493028148,42.4581821298612],[-76.5046198589273,42.4577975678097],[-76.5039164009338,42.4573443560635],[-76.5032499720608,42.4569186040071],[-76.5029352271104,42.4567537564864],[-76.5028427512054,42.4566302202884],[-76.5026272885644,42.4564592286787],[-76.5021649831411,42.4559981207129],[-76.5015813053758,42.4555088262628],[-76.5013387844509,42.4552726426222],[-76.5010127406952,42.4550757340294],[-76.5007474129551,42.454873248645],[-76.5006867654794,42.4548282497929],[-76.500770421645,42.4546878277351],[-76.5006263842626,42.4545809574598],[-76.5003230667463,42.4544177782857],[-76.4999893239148,42.454310769669],[-76.4998844677734,42.4542769189539]]]},"properties":{"ward":2,"district":1,"distName":"2-1","pollSite":"Ithaca Town Hall","legDist":"001","asmDist":125,"senDist":"53","repDist":"22"}},{"type":"Feature","id":54,"geometry":{"type":"Polygon","coordinates":[[[-76.4746564487198,42.4423095107868],[-76.4746273888063,42.4414385747075],[-76.4745503289841,42.4391355158624],[-76.4745094538949,42.4378685603272],[-76.474291543332,42.4346115898281],[-76.4742507460457,42.4339435361769],[-76.4704730357364,42.4339819238208],[-76.4700218659501,42.4333259743355],[-76.4713225835999,42.4331291698568],[-76.4716747630389,42.4329804741691],[-76.4722486594028,42.4329329334918],[-76.4724186174353,42.4330251018659],[-76.4732940615763,42.4325951212734],[-76.4734223475646,42.4324494641313],[-76.4737478523289,42.4322926536307],[-76.473989451263,42.4321195136795],[-76.4742535980696,42.4318621621926],[-76.4742728495286,42.4313078716927],[-76.4748894275893,42.4312784425984],[-76.4750758965872,42.4312750428737],[-76.4786123223357,42.4312105583032],[-76.4787183599821,42.4312084250907],[-76.4843249877221,42.4311068771368],[-76.4842853131297,42.4312603746554],[-76.4840536190918,42.4313887903583],[-76.4839374003778,42.431688793933],[-76.484058349608,42.4320584553485],[-76.4843356458509,42.4323742331559],[-76.4847057154819,42.4325803379087],[-76.4849088303922,42.4329646457034],[-76.4850562609377,42.4334312193193],[-76.4850743089265,42.4337330540297],[-76.4848143836561,42.4341444023585],[-76.4849622238888,42.4343503150179],[-76.4852770020823,42.4343917416648],[-76.4854620974324,42.4344604950735],[-76.4857213811131,42.4344607161486],[-76.4865361226644,42.4345574396128],[-76.4868138844222,42.43458511209],[-76.4873511807364,42.4344483727619],[-76.4878512062492,42.4344625099236],[-76.4881658001178,42.4346273993568],[-76.4884247119134,42.4348745566468],[-76.4885538986255,42.4351764826967],[-76.4886458399682,42.4356155682623],[-76.4887748242323,42.4360546833821],[-76.4889039544659,42.4363977658739],[-76.4889216510766,42.4369465411844],[-76.4891064290905,42.4372347935951],[-76.4897357356559,42.4375096890315],[-76.490198357569,42.4377844465977],[-76.4908276958046,42.4380456182632],[-76.4910496282006,42.4382653013791],[-76.4914013137847,42.438416493005],[-76.492012340344,42.4385404530894],[-76.4925308201745,42.4386231788153],[-76.4931234283576,42.4386785232019],[-76.4938826327187,42.4388025889238],[-76.4946604771995,42.4388443501812],[-76.4952013430217,42.4388083504032],[-76.4952153245783,42.4388307487557],[-76.4951213620049,42.4388694917521],[-76.4949349987218,42.4389268373466],[-76.4948323457185,42.4389678979618],[-76.4946788292509,42.4390297780641],[-76.4946138275178,42.4390558984121],[-76.4945223372134,42.4391087522318],[-76.4944251237852,42.439164604919],[-76.4943183615048,42.4392264910791],[-76.494318335849,42.4392265837894],[-76.4941176360537,42.439334186614],[-76.4939848064126,42.4394054539375],[-76.4938803622057,42.4394614913857],[-76.4938357840001,42.4394571153749],[-76.4937173092822,42.4394458924867],[-76.493635642684,42.4394379393404],[-76.4932655220763,42.4393979245757],[-76.4927590188174,42.4393425688695],[-76.4923897579388,42.4393022125451],[-76.4921113609236,42.4392824918818],[-76.4916476188455,42.4392850955794],[-76.4911915465558,42.4392933222987],[-76.4904863601485,42.439303492004],[-76.4900767192739,42.4392929519538],[-76.4896874033465,42.4392824927668],[-76.4895323600865,42.4392484915552],[-76.4891849205742,42.4390562785245],[-76.4885111388428,42.4386836407801],[-76.4873205434547,42.4380028982431],[-76.4864901851268,42.4375178200452],[-76.4860283608006,42.4372695546354],[-76.4859522831378,42.437343065655],[-76.4858543586063,42.4373824918256],[-76.4856603586864,42.4374474917677],[-76.4850472181176,42.4376403715407],[-76.4851453428581,42.4393231082627],[-76.4841573694682,42.4393448848414],[-76.4842253589795,42.4416454922723],[-76.4839915630065,42.4416389869463],[-76.4839172150863,42.4416268621626],[-76.4836582210894,42.4415663455142],[-76.4834448287898,42.4415155425775],[-76.4830653584346,42.4414254925576],[-76.4830675490288,42.4416891084448],[-76.4830841990543,42.4422106430542],[-76.4830949276192,42.4425466751459],[-76.4831706119757,42.4425681790819],[-76.4833009258202,42.442602594941],[-76.4834326485184,42.4426232905126],[-76.4835727771662,42.4426245127065],[-76.483752899521,42.4426192810661],[-76.4840335530575,42.4426155803424],[-76.4842727643835,42.4426080690973],[-76.4845128963587,42.4426048462428],[-76.4847611379747,42.4425971716075],[-76.4850723593285,42.4425934928211],[-76.4851343591567,42.4426684926498],[-76.4852180102822,42.4427044265541],[-76.4852575742272,42.4427053535015],[-76.4852453584167,42.4427394929668],[-76.485226358374,42.4428174925044],[-76.4852193579984,42.4428619925008],[-76.4852153597515,42.442956492841],[-76.485231954455,42.4430303418772],[-76.485257269366,42.4431400894529],[-76.4848304007692,42.4431482681198],[-76.4838929336843,42.4431745098233],[-76.4834670466873,42.4430388849615],[-76.4831141919286,42.4429123388227],[-76.4821893810174,42.4426410163954],[-76.4814592188411,42.4424600294053],[-76.4809358164655,42.442405461743],[-76.4806677044399,42.4425765450101],[-76.4804851506487,42.4425403129242],[-76.4803760252024,42.4422697047887],[-76.4795850467528,42.4420616001026],[-76.478647578754,42.4420968162511],[-76.4778925561031,42.4422313797925],[-76.4774293459524,42.4425826153794],[-76.476783637839,42.4428615445059],[-76.4765885434031,42.4430417024971],[-76.4766001212781,42.4433933767221],[-76.4763321160063,42.4434923139436],[-76.4755894770767,42.4434916183286],[-76.4754309316379,42.4436537758089],[-76.4754425947576,42.4439513470924],[-76.4750282589496,42.4441853989302],[-76.4747388695095,42.4443154884454],[-76.4747044440248,42.4437474637662],[-76.4746564487198,42.4423095107868]]]},"properties":{"ward":3,"district":2,"distName":"3-2","pollSite":"Belle Sherman Wilson Annex","legDist":"003","asmDist":125,"senDist":"53","repDist":"22"}},{"type":"Feature","id":55,"geometry":{"type":"Polygon","coordinates":[[[-76.4750040692293,42.4494228435312],[-76.4754759452649,42.449487678157],[-76.4760099407007,42.4496310521045],[-76.4764696634288,42.4498183156094],[-76.476721609425,42.4500163741765],[-76.4768696383091,42.4502363162604],[-76.4769878574988,42.4505331619488],[-76.4771805389407,42.4506762133565],[-76.4774326205825,42.4507973387399],[-76.4779073263112,42.4509076783648],[-76.4786345394832,42.4508863651508],[-76.4796584850581,42.4509092757785],[-76.4804302007692,42.4508989814078],[-76.4808603904841,42.4510092684905],[-76.4814834898129,42.4511307160255],[-76.4820110470231,42.4513002180185],[-76.481933340056,42.4513585225627],[-76.4817273590564,42.4515314938055],[-76.4816491741856,42.4515974782298],[-76.4814142279078,42.4517949213786],[-76.4813092983945,42.4518770875417],[-76.4812781690749,42.4519360570166],[-76.4812470406537,42.4519950270988],[-76.4811832108612,42.4522216705691],[-76.4811617851434,42.4522978310909],[-76.4811033587173,42.4524604950206],[-76.4811030002895,42.4525507956393],[-76.4810966752515,42.4526202408419],[-76.4810913994459,42.4527463103263],[-76.4810834870849,42.4528796803697],[-76.4811005182443,42.453042679493],[-76.4811103583899,42.4530814939848],[-76.4811737471097,42.4531275502469],[-76.4810833586258,42.4531564942179],[-76.4810138945998,42.4531864602179],[-76.4809272898199,42.453234584347],[-76.4808346178185,42.4533282323237],[-76.4807983582204,42.4533744945355],[-76.4807699436097,42.4534241038565],[-76.4807468470254,42.453486050498],[-76.4807289678563,42.4535848215346],[-76.4807432932902,42.4537168628717],[-76.480801266067,42.4538153352858],[-76.4808639729654,42.4539061462922],[-76.4808652512681,42.4539184676597],[-76.4808880711712,42.453940967571],[-76.4809936133357,42.454093418225],[-76.4811043576439,42.4542434950499],[-76.4812408629395,42.4543726074524],[-76.4814547077912,42.4545127450864],[-76.4814673587653,42.4545994948412],[-76.4814263578592,42.4546624941523],[-76.4813683590311,42.4547174948877],[-76.4812653869468,42.4547755377642],[-76.4812313659503,42.4547913180418],[-76.4810525994121,42.4548690429262],[-76.480933358838,42.4549304950267],[-76.4808403589516,42.4550214952977],[-76.4808193581368,42.4550674944594],[-76.4808093580911,42.4551374949344],[-76.4806356661359,42.4551436806831],[-76.4803543254671,42.4551654570588],[-76.4801353584216,42.4551614949467],[-76.479897255464,42.4551821604935],[-76.4796632991297,42.4552114846144],[-76.4793613582947,42.4552834944802],[-76.479054358148,42.4553504943077],[-76.4788183572482,42.455376495171],[-76.478578357947,42.4554154944575],[-76.4781718568062,42.4554164952547],[-76.4778443580031,42.4554114945828],[-76.4776313566694,42.4554004950917],[-76.4775053302216,42.455390536163],[-76.4772503569029,42.4553154948618],[-76.4770559048816,42.4548833464949],[-76.4762734354382,42.4546689960975],[-76.4756201823602,42.4551548684495],[-76.4755932688343,42.4552191821607],[-76.4755153561531,42.455347495227],[-76.4753423576973,42.455538495617],[-76.4751823569654,42.4557054956299],[-76.475115287848,42.4557972344323],[-76.4751122488474,42.4557074746804],[-76.4750762892866,42.454666571621],[-76.475019531032,42.4498365701869],[-76.4750040692293,42.4494228435312]]]},"properties":{"ward":2,"district":5,"distName":"5-2","pollSite":"Robert Purcell Community Center","legDist":"005","asmDist":125,"senDist":"53","repDist":"22"}},{"type":"Feature","id":56,"geometry":{"type":"Polygon","coordinates":[[[-76.4903035229715,42.44851910829],[-76.4903246890763,42.4485435516352],[-76.4903591394674,42.4492986730346],[-76.4897426795868,42.4492718311496],[-76.4891024826232,42.4492625267997],[-76.4887586281937,42.4492885832181],[-76.4884147980187,42.4492970795569],[-76.4880708357913,42.4493933761772],[-76.4878809570931,42.4495161405982],[-76.4877428572879,42.4495789196566],[-76.4876897776343,42.4495159775391],[-76.4876781157053,42.449188863503],[-76.4876737418082,42.4489443353637],[-76.4876624517817,42.4486023426273],[-76.4876496714502,42.4481554325293],[-76.4878257771785,42.4481558507917],[-76.4879355665775,42.448156111957],[-76.4882017643457,42.448156744322],[-76.4883538787677,42.4481571055787],[-76.4885294904226,42.4482221907484],[-76.4885623606772,42.448230493678],[-76.488655190782,42.4483122939812],[-76.4888838057336,42.4484779225972],[-76.4889658596483,42.4485089931596],[-76.4890252948824,42.4485510226428],[-76.4891033477008,42.4486062183208],[-76.4891710752833,42.4486541126456],[-76.4892663604839,42.4487214934127],[-76.4894603615509,42.4485884936662],[-76.4895193602038,42.4485604934742],[-76.4899788610481,42.4485274927112],[-76.4903035229715,42.44851910829]]]},"properties":{"ward":4,"district":2,"distName":"4-2","pollSite":"Robert Purcell Community Center","legDist":"002","asmDist":125,"senDist":"53","repDist":"22"}},{"type":"Feature","id":57,"geometry":{"type":"Polygon","coordinates":[[[-76.4940318614612,42.4429143767542],[-76.4938803620252,42.4428788771134],[-76.4936456719399,42.4429124070076],[-76.4924183612412,42.4430328771218],[-76.4922493611058,42.442749877179],[-76.4918633617487,42.4428284922156],[-76.4914183610949,42.4430224924335],[-76.491056361124,42.4430744924206],[-76.4909153614626,42.4431564927585],[-76.4905383600952,42.4432944921077],[-76.4898933603648,42.443321491919],[-76.4896097158447,42.4433425738964],[-76.4896450972843,42.4431519756761],[-76.4897046448905,42.4429676407118],[-76.4897878487496,42.4428184454512],[-76.4898473303555,42.442678011341],[-76.4898950349861,42.4424848869447],[-76.4898598758564,42.4422126726499],[-76.489848544245,42.4418614563282],[-76.4898252404667,42.4415892516608],[-76.4892799424718,42.4415888055511],[-76.4886397856768,42.4416058396477],[-76.4886293324321,42.440675132059],[-76.4885947749772,42.4400078104842],[-76.4885212486805,42.4386926862908],[-76.4891849215841,42.4390596636295],[-76.4895323598995,42.4392518766592],[-76.4896874031679,42.4392858778707],[-76.4900767191163,42.4392963370578],[-76.490486360013,42.439306877108],[-76.4911915464582,42.4392967074028],[-76.4916476187724,42.4392884806834],[-76.4921113608755,42.4392858769859],[-76.4923897579057,42.4393055976492],[-76.4927590188042,42.4393459539735],[-76.4932655220904,42.4394013096798],[-76.4935617454298,42.4394333350108],[-76.493553974891,42.4394299861351],[-76.4937173092822,42.4394458924867],[-76.4938357840001,42.4394571153749],[-76.4938803622057,42.4394614913857],[-76.4939848064126,42.4394054539375],[-76.4941176360537,42.439334186614],[-76.494318335849,42.4392265837894],[-76.4943183615048,42.4392264910791],[-76.4944251237852,42.439164604919],[-76.4945223372134,42.4391087522318],[-76.4946138275178,42.4390558984121],[-76.4946788292509,42.4390297780641],[-76.4948323457185,42.4389678979618],[-76.4949349987218,42.4389268373466],[-76.4951213620049,42.4388694917521],[-76.4952153245783,42.4388307487557],[-76.4951583615344,42.4387394916948],[-76.4952618615392,42.4387154911028],[-76.4953174377724,42.4387026037692],[-76.4953974699583,42.43868194583],[-76.4954514190698,42.4386574487956],[-76.4954913359275,42.4386441685472],[-76.4955503624134,42.4386314917121],[-76.495647361663,42.4385814916114],[-76.49579023546,42.4385314022303],[-76.4958681871438,42.4384979951133],[-76.4959288618489,42.4384719913915],[-76.4960394069554,42.4384191608582],[-76.4961213617169,42.4383894910353],[-76.4962023623956,42.4383614913738],[-76.4962705420662,42.4383285501088],[-76.4963763622639,42.4382879911667],[-76.4964323625167,42.4382659908391],[-76.4964913620184,42.4382354912817],[-76.4965451008442,42.4382148225208],[-76.4967671594256,42.4381166918427],[-76.4970913621879,42.4379824908255],[-76.4973653622842,42.4378724907627],[-76.4974276209902,42.4378249109892],[-76.4976435423444,42.4377322766032],[-76.497820574602,42.4376321979849],[-76.4979433630329,42.4375544906154],[-76.4979803623449,42.4374994913043],[-76.4980173626475,42.4374714908966],[-76.4980243631115,42.437422490406],[-76.4980543633917,42.4374054908701],[-76.4980693634082,42.4373674907168],[-76.4980913625201,42.4373504906213],[-76.4981063622457,42.4372794910872],[-76.49812836271,42.4372524905199],[-76.4981433632051,42.4371754905209],[-76.4981794119529,42.4371059119746],[-76.498204279314,42.4369165067822],[-76.4984824774027,42.436139446833],[-76.4988220974182,42.4354712175581],[-76.4988343142115,42.4357790290613],[-76.4988736775904,42.4365525845041],[-76.4988916938883,42.4368927549831],[-76.4989198682599,42.437440762181],[-76.4989353633758,42.4377679971215],[-76.498961305525,42.4382835478902],[-76.498981664558,42.4386430384799],[-76.49900344957,42.439098600433],[-76.4990246928526,42.4395432386848],[-76.4990425866012,42.4395543713701],[-76.4990414347648,42.439569471148],[-76.4991353438422,42.4405075082898],[-76.499163444079,42.4413189093547],[-76.4991097080362,42.4413207316925],[-76.4991211355187,42.4415880803888],[-76.4991520337317,42.4422073013732],[-76.4991963147811,42.4427035178552],[-76.4992554169526,42.4445674899858],[-76.4992718310986,42.4447081259615],[-76.4992634641761,42.4449564718931],[-76.4986094649691,42.4449974947848],[-76.4981203742046,42.4450134257529],[-76.4971632758875,42.445037407113],[-76.4959893998657,42.445083511261],[-76.4946893618007,42.4450844921591],[-76.4945616295698,42.4431272528964],[-76.4945686627027,42.4430996625601],[-76.4940318614612,42.4429143767542]]]},"properties":{"ward":2,"district":3,"distName":"2-3","pollSite":"Ithaca Town Hall","legDist":"003","asmDist":125,"senDist":"53","repDist":"22"}},{"type":"Feature","id":58,"geometry":{"type":"Polygon","coordinates":[[[-76.5003337826506,42.4640611146593],[-76.5001818919091,42.464013841127],[-76.4992661160708,42.4642731751371],[-76.4990718733569,42.4638525007779],[-76.4990989970887,42.463663179164],[-76.4995163894039,42.4629625365654],[-76.5000278523975,42.4626512829854],[-76.5002564673491,42.4626212691608],[-76.4999775853691,42.4559832845208],[-76.4969123943808,42.4560550264017],[-76.4938868083168,42.4561258429708],[-76.4924135892171,42.4561629933206],[-76.4907544134638,42.4562048758348],[-76.4860827643546,42.4563226707117],[-76.4813441736887,42.4564384710959],[-76.4783884037903,42.4564884710113],[-76.4751405951862,42.4565938835413],[-76.475115287848,42.4557972344323],[-76.4751823569654,42.4557054956299],[-76.4753423576973,42.455538495617],[-76.4755153561531,42.455347495227],[-76.4755932688343,42.4552191821607],[-76.4756201823602,42.4551548684495],[-76.4762734354382,42.4546689960975],[-76.4770559048816,42.4548833464949],[-76.4772503569029,42.4553154948618],[-76.4775053302216,42.455390536163],[-76.4776313566694,42.4554004950917],[-76.4778443580031,42.4554114945828],[-76.4781718568062,42.4554164952547],[-76.478578357947,42.4554154944575],[-76.4788183572482,42.455376495171],[-76.479054358148,42.4553504943077],[-76.4793613582947,42.4552834944802],[-76.4796632991297,42.4552114846144],[-76.479897255464,42.4551821604935],[-76.4801353584216,42.4551614949467],[-76.4803543254671,42.4551654570588],[-76.4806356661359,42.4551436806831],[-76.4808093580911,42.4551374949344],[-76.4808193581368,42.4550674944594],[-76.4808403589516,42.4550214952977],[-76.480933358838,42.4549304950267],[-76.4810525994121,42.4548690429262],[-76.4812313659503,42.4547913180418],[-76.4812653869468,42.4547755377642],[-76.4813683590311,42.4547174948877],[-76.4814263578592,42.4546624941523],[-76.4814673587653,42.4545994948412],[-76.4814547077912,42.4545127450864],[-76.4812408629395,42.4543726074524],[-76.4811043576439,42.4542434950499],[-76.4809936133357,42.454093418225],[-76.4808880711712,42.453940967571],[-76.4808652512681,42.4539184676597],[-76.4808639729654,42.4539061462922],[-76.480801266067,42.4538153352858],[-76.4807432932902,42.4537168628717],[-76.4807289678563,42.4535848215346],[-76.4807468470254,42.453486050498],[-76.4807699436097,42.4534241038565],[-76.4807983582204,42.4533744945355],[-76.4808346178185,42.4533282323237],[-76.4809272898199,42.453234584347],[-76.4810138945998,42.4531864602179],[-76.4810833586258,42.4531564942179],[-76.4811737471097,42.4531275502469],[-76.4811103583899,42.4530814939848],[-76.4811005182443,42.453042679493],[-76.4810834870849,42.4528796803697],[-76.4810913994459,42.4527463103263],[-76.4810966752515,42.4526202408419],[-76.4811030002895,42.4525507956393],[-76.4811033587173,42.4524604950206],[-76.4811617851434,42.4522978310909],[-76.4811832108612,42.4522216705691],[-76.4812470406537,42.4519950270988],[-76.4812781690749,42.4519360570166],[-76.4813092983945,42.4518770875417],[-76.4814142279078,42.4517949213786],[-76.4816491741856,42.4515974782298],[-76.4817273590564,42.4515314938055],[-76.481933340056,42.4513585225627],[-76.4820389567806,42.4512792774447],[-76.4822123585799,42.4513114933013],[-76.4825187155328,42.4513634672183],[-76.482738043701,42.451396903287],[-76.4829823585089,42.4514184940497],[-76.4831494523382,42.4514153131676],[-76.483400155066,42.4513998157272],[-76.4835972840669,42.4513837913393],[-76.4838365440547,42.4513671916175],[-76.4841397290563,42.4513451587344],[-76.4844579689238,42.4513229661032],[-76.4846495193868,42.4513070106292],[-76.485090970382,42.4512810630907],[-76.4853024337999,42.4512670954136],[-76.4857528571682,42.4512793132371],[-76.4859264718682,42.4512853336611],[-76.4861386925659,42.4512919300778],[-76.4864842771506,42.4512404870233],[-76.4865981098668,42.4511920432062],[-76.4866957782977,42.4511055505476],[-76.4867761164302,42.4509912780597],[-76.4868445132577,42.4508643347499],[-76.4868958537728,42.4507601023536],[-76.4869430135286,42.4506649571814],[-76.4869757687988,42.450598513096],[-76.4870443309162,42.4504479874162],[-76.4871133448862,42.4502964724268],[-76.487173360432,42.4501804936513],[-76.4872533652895,42.4500315073991],[-76.4873383602885,42.4499164938875],[-76.4875163596654,42.4497654933015],[-76.4876368596776,42.4496784935887],[-76.4876856543672,42.4496341959582],[-76.4877491140538,42.4495863395018],[-76.4877428572879,42.4495789196566],[-76.4878809570931,42.4495161405982],[-76.4880708357913,42.4493933761772],[-76.4884147980187,42.4492970795569],[-76.4887586281937,42.4492885832181],[-76.4891024826232,42.4492625267997],[-76.4897426795868,42.4492718311496],[-76.4903591394674,42.4492986730346],[-76.4903246890763,42.4485435516352],[-76.4903035229715,42.44851910829],[-76.4903273615642,42.4485184931629],[-76.4903273022754,42.4485165297936],[-76.4903163688801,42.4481508561687],[-76.490294025084,42.4474035387548],[-76.4902850625924,42.4470597465371],[-76.4902755853662,42.4467357643362],[-76.4902593608939,42.4465779927889],[-76.4901778387818,42.4462822227655],[-76.4901523607637,42.4462064930908],[-76.4901130163509,42.446089094149],[-76.49006901597,42.4459594462988],[-76.4900253758135,42.4458308621042],[-76.4899853603592,42.4457124926617],[-76.489939148326,42.4455850686695],[-76.4898205626237,42.4453840634848],[-76.4897461201344,42.4452938864371],[-76.4896343598316,42.4451679935275],[-76.4895382068585,42.4450612638295],[-76.4894074058649,42.4448827906224],[-76.4893783821964,42.4447796904358],[-76.4893886301772,42.4445858976075],[-76.4894499599583,42.4441438053086],[-76.4894814908247,42.4439632347216],[-76.4895008710787,42.4438550306661],[-76.489547454116,42.4436096669962],[-76.4895975675324,42.4433434771361],[-76.4898933602976,42.4433214918117],[-76.4905383596548,42.4432944922451],[-76.49091536102,42.4431564925842],[-76.4910563614853,42.4430744926417],[-76.4914183609852,42.4430224926226],[-76.4918633621225,42.4428284921704],[-76.4922493610135,42.4427464917986],[-76.4924183610679,42.4430294922963],[-76.4936712755307,42.4429065096601],[-76.4938803620063,42.4428754920036],[-76.4940803620229,42.4429194921259],[-76.4945694560675,42.4430965509729],[-76.4945616299448,42.443127252975],[-76.494689361395,42.4450844921229],[-76.4946906657488,42.44508449146],[-76.4946887217945,42.4450865265288],[-76.4947249373752,42.4456764722938],[-76.4947611152266,42.446293855579],[-76.4948152566888,42.4473091043787],[-76.4948695930854,42.4481871627933],[-76.4949235459013,42.4493395996787],[-76.4949781940134,42.4499981541189],[-76.4950142604737,42.4506978514285],[-76.495087725596,42.4511506345733],[-76.4950688142626,42.4514250003087],[-76.4951423000461,42.4518640645119],[-76.4950863008679,42.4521658397872],[-76.4946186936265,42.452174836823],[-76.4946673841116,42.4528974700907],[-76.4946774946501,42.4531802219143],[-76.4949598593984,42.4531943807149],[-76.4953392197395,42.4532283884677],[-76.4956806397346,42.4532623663759],[-76.496082749012,42.4533076271429],[-76.4964848591877,42.4533528872143],[-76.4967503293204,42.4534373777632],[-76.4971675473626,42.4535332199657],[-76.4975847447434,42.4536459189725],[-76.4978426501632,42.4537135435816],[-76.4982295276066,42.4538037396603],[-76.4985632813791,42.4538995150226],[-76.4987529031591,42.453961467159],[-76.4988894380992,42.4540009034455],[-76.4992004366472,42.4540910407845],[-76.499488646733,42.4541980182262],[-76.499663124714,42.4542374815382],[-76.499867963955,42.4542713468872],[-76.499883859644,42.4542681489174],[-76.4998844669051,42.4542769189765],[-76.4999893236549,42.4543107697227],[-76.5003230666476,42.4544177786031],[-76.5006263845999,42.4545809573157],[-76.5007704213709,42.4546878278746],[-76.5006867657601,42.4548282498011],[-76.5007474128215,42.4548732489618],[-76.5010127410205,42.4550757341801],[-76.5013387845528,42.4552726427668],[-76.501581305425,42.4555088263416],[-76.502164983086,42.4559981207047],[-76.5026272884705,42.4564592290089],[-76.502842751188,42.4566302203987],[-76.5029352273566,42.456753756675],[-76.5032499718794,42.4569186041047],[-76.5039164005476,42.457344356057],[-76.5046198586702,42.4577975676722],[-76.5052493027999,42.4581821296975],[-76.5059898011566,42.4586627967649],[-76.506563713232,42.4590198755613],[-76.5070453108356,42.4591162301343],[-76.5074528001233,42.4592125335283],[-76.5081380224456,42.459459927017],[-76.508878833416,42.4597073520023],[-76.5096751863221,42.4599959647596],[-76.5103419141293,42.4602296134771],[-76.5108975122511,42.4604357508923],[-76.5117688196862,42.4607260714439],[-76.5117693218444,42.460732526369],[-76.5118644318735,42.4638644497447],[-76.5125588601308,42.466566684703],[-76.5008265984155,42.4669469531881],[-76.5004663254775,42.4649045027753],[-76.5003337826506,42.4640611146593]]]},"properties":{"ward":5,"district":1,"distName":"5-1","pollSite":"Robert Purcell Community Center","legDist":"002","asmDist":125,"senDist":"53","repDist":"22"}},{"type":"Feature","id":59,"geometry":{"type":"Polygon","coordinates":[[[-76.5035435614974,42.43407254925],[-76.503968368279,42.4340728441422],[-76.5044007119777,42.4341124783169],[-76.5048481784886,42.4341914559816],[-76.5054018133501,42.4342986005132],[-76.505636864136,42.4343886688709],[-76.5059021892677,42.4345349508757],[-76.506220487935,42.4347880347218],[-76.5064326601795,42.4349792341198],[-76.5068419245216,42.4352885699776],[-76.5072967647393,42.435552981104],[-76.5078955884006,42.4359467287925],[-76.5082085895795,42.4361734627646],[-76.5081963935322,42.4363724665949],[-76.50820538788,42.4365736459125],[-76.5082123994053,42.4367305024456],[-76.5082298376292,42.4369843715891],[-76.5082472747782,42.4372382398177],[-76.5082581414905,42.4374452542321],[-76.5082765906545,42.4377984849376],[-76.5082875632599,42.4380085892069],[-76.5082994333403,42.4382529907489],[-76.508303827885,42.4383542676788],[-76.5083041856322,42.4383630961942],[-76.5062236276775,42.4384142513099],[-76.504884117388,42.4384484638082],[-76.5038528009359,42.4384828738517],[-76.5029874353177,42.4385173910501],[-76.5016479097267,42.4385603453849],[-76.5000831613637,42.4386031207236],[-76.4992296463205,42.4386376181581],[-76.4990044134636,42.4386462332541],[-76.4989818170883,42.4386462166291],[-76.498981664558,42.4386430384799],[-76.498961305525,42.4382835478902],[-76.4989353633758,42.4377679971215],[-76.4989198682599,42.437440762181],[-76.4988916938883,42.4368927549831],[-76.4988915966744,42.4368909300155],[-76.4988736775904,42.4365525845041],[-76.4988343142115,42.4357790290613],[-76.4988220974182,42.4354712175581],[-76.4988294774654,42.4353235927436],[-76.4989828527579,42.4352774377788],[-76.4991043722718,42.4351707594291],[-76.4995141409173,42.435075531349],[-76.5005993551688,42.4347560192822],[-76.5014190288746,42.4344531645963],[-76.5019654312326,42.434284974501],[-76.5024359426666,42.4341392050172],[-76.5027849339332,42.4341057347389],[-76.5031339260454,42.4340722633986],[-76.5035435614974,42.43407254925]]]},"properties":{"ward":1,"district":3,"distName":"1-3","pollSite":"Southside Community Center","legDist":"001","asmDist":125,"senDist":"53","repDist":"22"}},{"type":"Feature","id":60,"geometry":{"type":"Polygon","coordinates":[[[-76.4992723358477,42.4447124558397],[-76.4992567389196,42.4445788220409],[-76.4994179801313,42.4446058157317],[-76.5013148386794,42.4445453763187],[-76.5027943800212,42.4445014710559],[-76.5042663259528,42.4444631610847],[-76.5060190201459,42.4444025433964],[-76.5064894262663,42.4443972409728],[-76.5068080905226,42.4443918345199],[-76.5070053754325,42.4443751080685],[-76.5074530267302,42.4443641669086],[-76.5078020463175,42.4443531590543],[-76.5083483355671,42.4443366597202],[-76.5086151266137,42.4443261528531],[-76.508615104544,42.4443252894578],[-76.508556655792,42.4432365306555],[-76.5085292413799,42.4427279966177],[-76.5084857946724,42.4423216389416],[-76.5084844399786,42.4419463292165],[-76.5084657818251,42.4415716599794],[-76.5084387423829,42.4410760821391],[-76.5084265992037,42.4408457746474],[-76.5084064389238,42.4404602612121],[-76.5083880862546,42.4401227246721],[-76.5083744964125,42.4398684584781],[-76.508358500014,42.4395622275493],[-76.5083446537446,42.4392632777833],[-76.5083324496483,42.4390112424801],[-76.5083175087965,42.4386916635346],[-76.508303827885,42.4383542676788],[-76.5082994333403,42.4382529907489],[-76.5082875632599,42.4380085892069],[-76.5082765906545,42.4377984849376],[-76.5082581414905,42.4374452542321],[-76.5082472747782,42.4372382398177],[-76.5082298376292,42.4369843715891],[-76.5082123994053,42.4367305024456],[-76.5081963935322,42.4363724665949],[-76.5082089304563,42.4361679018709],[-76.5086085775824,42.4364315108212],[-76.5097099803121,42.437248780298],[-76.5103969216108,42.4377321290057],[-76.5112734010149,42.4383297357141],[-76.5118420676323,42.4386022767013],[-76.5122446981492,42.4389537343935],[-76.5127540855053,42.43924379518],[-76.513180736493,42.4393230785501],[-76.5138801330742,42.4393059441989],[-76.5145082445184,42.4394380260938],[-76.5151008619867,42.4395086212756],[-76.5156662284094,42.4395773355029],[-76.5155653308686,42.4397605117625],[-76.5148563066371,42.4410604509609],[-76.5147563075404,42.4412435603753],[-76.5139054773817,42.4428064983985],[-76.5137344281793,42.4435774866892],[-76.5135293989984,42.4445004080664],[-76.513292479958,42.4455644591383],[-76.5125113254693,42.4468624513895],[-76.5118922678544,42.4485474568595],[-76.5111563182629,42.4499495717214],[-76.5107713561287,42.450610484186],[-76.5108423748088,42.4514824653592],[-76.5074424754666,42.4516054639339],[-76.5070094276386,42.4515825376784],[-76.5061604179065,42.4513924551209],[-76.5044473610392,42.4510095175869],[-76.5043994631552,42.4509774126183],[-76.5042774179918,42.4509754424015],[-76.5042574187189,42.4508565747792],[-76.5041792969209,42.4507335508965],[-76.5038323779568,42.4501844919677],[-76.5026543414844,42.4488894846596],[-76.5026254343926,42.4488584213367],[-76.5021944202512,42.4481724365052],[-76.5019303672577,42.447856506886],[-76.5011932540235,42.4469725529582],[-76.5004374315312,42.4460674858727],[-76.5003953529821,42.4460165177807],[-76.4996642944745,42.4451394192539],[-76.4992723358477,42.4447124558397]]]},"properties":{"ward":1,"district":4,"distName":"1-4","pollSite":"Greater Ithaca Activities Center","legDist":"004","asmDist":125,"senDist":"53","repDist":"22"}},{"type":"Feature","id":62,"geometry":{"type":"Polygon","coordinates":[[[-76.4992723358477,42.4447124558397],[-76.4992567389196,42.4445788220409],[-76.4994179801313,42.4446058157317],[-76.5013148386794,42.4445453763187],[-76.5027943800212,42.4445014710559],[-76.5042663259528,42.4444631610847],[-76.5060190201459,42.4444025433964],[-76.5064894262663,42.4443972409728],[-76.5068080905226,42.4443918345199],[-76.5070053754325,42.4443751080685],[-76.5074530267302,42.4443641669086],[-76.5078020463175,42.4443531590543],[-76.5083483355671,42.4443366597202],[-76.5086151266137,42.4443261528531],[-76.508615104544,42.4443252894578],[-76.508556655792,42.4432365306555],[-76.5085292413799,42.4427279966177],[-76.5084857946724,42.4423216389416],[-76.5084844399786,42.4419463292165],[-76.5084657818251,42.4415716599794],[-76.5084387423829,42.4410760821391],[-76.5084265992037,42.4408457746474],[-76.5084064389238,42.4404602612121],[-76.5083880862546,42.4401227246721],[-76.5083744964125,42.4398684584781],[-76.508358500014,42.4395622275493],[-76.5083446537446,42.4392632777833],[-76.5083324496483,42.4390112424801],[-76.5083175087965,42.4386916635346],[-76.508303827885,42.4383542676788],[-76.5082994333403,42.4382529907489],[-76.5082875632599,42.4380085892069],[-76.5082765906545,42.4377984849376],[-76.5082581414905,42.4374452542321],[-76.5082472747782,42.4372382398177],[-76.5082298376292,42.4369843715891],[-76.5082123994053,42.4367305024456],[-76.5081963935322,42.4363724665949],[-76.5082089304563,42.4361679018709],[-76.5086085775824,42.4364315108212],[-76.5097099803121,42.437248780298],[-76.5103969216108,42.4377321290057],[-76.5112734010149,42.4383297357141],[-76.5118420676323,42.4386022767013],[-76.5122446981492,42.4389537343935],[-76.5127540855053,42.43924379518],[-76.513180736493,42.4393230785501],[-76.5138801330742,42.4393059441989],[-76.5145082445184,42.4394380260938],[-76.5151008619867,42.4395086212756],[-76.5156662284094,42.4395773355029],[-76.5155653308686,42.4397605117625],[-76.5148563066371,42.4410604509609],[-76.5147563075404,42.4412435603753],[-76.5139054773817,42.4428064983985],[-76.5137344281793,42.4435774866892],[-76.5135293989984,42.4445004080664],[-76.513292479958,42.4455644591383],[-76.5125113254693,42.4468624513895],[-76.5118922678544,42.4485474568595],[-76.5111563182629,42.4499495717214],[-76.5107713561287,42.450610484186],[-76.5108423748088,42.4514824653592],[-76.5074424754666,42.4516054639339],[-76.5070094276386,42.4515825376784],[-76.5061604179065,42.4513924551209],[-76.5044473610392,42.4510095175869],[-76.5043994631552,42.4509774126183],[-76.5042774179918,42.4509754424015],[-76.5042574187189,42.4508565747792],[-76.5041792969209,42.4507335508965],[-76.5038323779568,42.4501844919677],[-76.5026543414844,42.4488894846596],[-76.5026254343926,42.4488584213367],[-76.5021944202512,42.4481724365052],[-76.5019303672577,42.447856506886],[-76.5011932540235,42.4469725529582],[-76.5004374315312,42.4460674858727],[-76.5003953529821,42.4460165177807],[-76.4996642944745,42.4451394192539],[-76.4992723358477,42.4447124558397]]]},"properties":{"ward":1,"district":4,"distName":"1-4","pollSite":"Greater Ithaca Activities Center","legDist":"004","asmDist":125,"senDist":"53","repDist":"22"}}]}